STARLINK-1213
1 15400C 20019AS  21326.14444058 -.00014641  00000-0 -98073-3 0  3261
2 15400  53.0550 338.1037 0001833  59.3306  46.6914 15.06421722    10
